CCSDS_OMM_VERS = 2.0
CREATION_DATE  = 
ORIGINATOR     = 

OBJECT_NAME    = SL-14 R/B
OBJECT_ID      = 1986-046B
CENTER_NAME    = EARTH
REF_FRAME      = TEME
TIME_SYSTEM    = UTC
MEAN_ELEMENT_THEORY = SGP/SGP4

EPOCH          = 2026-01-17T06:43:06.740832
MEAN_MOTION    = 14.85529760
ECCENTRICITY   = .00240532
INCLINATION    = 82.4836
RA_OF_ASC_NODE = 128.7521
ARG_OF_PERICENTER = 40.8934
MEAN_ANOMALY   = 319.4080

EPHEMERIS_TYPE = 0
CLASSIFICATION_TYPE = U
NORAD_CAT_ID   = 16792
ELEMENT_SET_NO = 999
REV_AT_EPOCH   = 11877
BSTAR          = .45062658E-4
MEAN_MOTION_DOT = .416E-5
MEAN_MOTION_DDOT = 0

CCSDS_OMM_VERS = 2.0
CREATION_DATE  = 
ORIGINATOR     = 

OBJECT_NAME    = SL-14 R/B
OBJECT_ID      = 1986-055B
CENTER_NAME    = EARTH
REF_FRAME      = TEME
TIME_SYSTEM    = UTC
MEAN_ELEMENT_THEORY = SGP/SGP4

EPOCH          = 2026-01-16T22:49:23.799360
MEAN_MOTION    = 14.85573398
ECCENTRICITY   = .00198582
INCLINATION    = 82.5208
RA_OF_ASC_NODE = 175.2851
ARG_OF_PERICENTER = 140.0765
MEAN_ANOMALY   = 337.9667

EPHEMERIS_TYPE = 0
CLASSIFICATION_TYPE = U
NORAD_CAT_ID   = 16882
ELEMENT_SET_NO = 999
REV_AT_EPOCH   = 11168
BSTAR          = .51639696E-4
MEAN_MOTION_DOT = .472E-5
MEAN_MOTION_DDOT = 0

CCSDS_OMM_VERS = 2.0
CREATION_DATE  = 
ORIGINATOR     = 

OBJECT_NAME    = AJISAI (EGS)
OBJECT_ID      = 1986-061A
CENTER_NAME    = EARTH
REF_FRAME      = TEME
TIME_SYSTEM    = UTC
MEAN_ELEMENT_THEORY = SGP/SGP4

EPOCH          = 2026-01-17T07:53:07.187424
MEAN_MOTION    = 12.44515004
ECCENTRICITY   = .00112909
INCLINATION    = 50.0075
RA_OF_ASC_NODE = 251.2853
ARG_OF_PERICENTER = 155.3175
MEAN_ANOMALY   = 316.6423

EPHEMERIS_TYPE = 0
CLASSIFICATION_TYPE = U
NORAD_CAT_ID   = 16908
ELEMENT_SET_NO = 999
REV_AT_EPOCH   = 46160
BSTAR          = .19334984E-3
MEAN_MOTION_DOT = -.7E-6
MEAN_MOTION_DDOT = 0

CCSDS_OMM_VERS = 2.0
CREATION_DATE  = 
ORIGINATOR     = 

OBJECT_NAME    = COSMOS 1812
OBJECT_ID      = 1987-003A
CENTER_NAME    = EARTH
REF_FRAME      = TEME
TIME_SYSTEM    = UTC
MEAN_ELEMENT_THEORY = SGP/SGP4

EPOCH          = 2026-01-17T03:19:19.546752
MEAN_MOTION    = 15.84596765
ECCENTRICITY   = .00024747
INCLINATION    = 82.4835
RA_OF_ASC_NODE = 253.4512
ARG_OF_PERICENTER = 46.4027
MEAN_ANOMALY   = 313.7448

EPHEMERIS_TYPE = 0
CLASSIFICATION_TYPE = U
NORAD_CAT_ID   = 17295
ELEMENT_SET_NO = 999
REV_AT_EPOCH   = 13624
BSTAR          = .62338623E-3
MEAN_MOTION_DOT = .144727E-2
MEAN_MOTION_DDOT = 0

CCSDS_OMM_VERS = 2.0
CREATION_DATE  = 
ORIGINATOR     = 

OBJECT_NAME    = SL-14 R/B
OBJECT_ID      = 1987-024B
CENTER_NAME    = EARTH
REF_FRAME      = TEME
TIME_SYSTEM    = UTC
MEAN_ELEMENT_THEORY = SGP/SGP4

EPOCH          = 2026-01-17T07:58:08.102208
MEAN_MOTION    = 14.86070014
ECCENTRICITY   = .00196586
INCLINATION    = 82.5302
RA_OF_ASC_NODE = 141.0210
ARG_OF_PERICENTER = 72.4472
MEAN_ANOMALY   = 287.8890

EPHEMERIS_TYPE = 0
CLASSIFICATION_TYPE = U
NORAD_CAT_ID   = 17567
ELEMENT_SET_NO = 999
REV_AT_EPOCH   = 8050
BSTAR          = .49459611E-4
MEAN_MOTION_DOT = .459E-5
MEAN_MOTION_DDOT = 0

CCSDS_OMM_VERS = 2.0
CREATION_DATE  = 
ORIGINATOR     = 

OBJECT_NAME    = COSMOS 1833
OBJECT_ID      = 1987-027A
CENTER_NAME    = EARTH
REF_FRAME      = TEME
TIME_SYSTEM    = UTC
MEAN_ELEMENT_THEORY = SGP/SGP4

EPOCH          = 2026-01-17T04:24:46.918368
MEAN_MOTION    = 14.13045496
ECCENTRICITY   = .00242111
INCLINATION    = 70.9193
RA_OF_ASC_NODE = 74.2731
ARG_OF_PERICENTER = 282.9629
MEAN_ANOMALY   = 76.8788

EPHEMERIS_TYPE = 0
CLASSIFICATION_TYPE = U
NORAD_CAT_ID   = 17589
ELEMENT_SET_NO = 999
REV_AT_EPOCH   = 304
BSTAR          = .18676064E-3
MEAN_MOTION_DOT = .301E-5
MEAN_MOTION_DDOT = 0

CCSDS_OMM_VERS = 2.0
CREATION_DATE  = 
ORIGINATOR     = 

OBJECT_NAME    = SL-16 R/B
OBJECT_ID      = 1987-027B
CENTER_NAME    = EARTH
REF_FRAME      = TEME
TIME_SYSTEM    = UTC
MEAN_ELEMENT_THEORY = SGP/SGP4

EPOCH          = 2026-01-17T07:21:37.660896
MEAN_MOTION    = 14.17160090
ECCENTRICITY   = .00063827
INCLINATION    = 71.0033
RA_OF_ASC_NODE = 24.7698
ARG_OF_PERICENTER = 221.6369
MEAN_ANOMALY   = 138.4269

EPHEMERIS_TYPE = 0
CLASSIFICATION_TYPE = U
NORAD_CAT_ID   = 17590
ELEMENT_SET_NO = 999
REV_AT_EPOCH   = 806
BSTAR          = -.65256091E-4
MEAN_MOTION_DOT = -.18E-5
MEAN_MOTION_DDOT = 0

CCSDS_OMM_VERS = 2.0
CREATION_DATE  = 
ORIGINATOR     = 

OBJECT_NAME    = SL-14 R/B
OBJECT_ID      = 1987-038B
CENTER_NAME    = EARTH
REF_FRAME      = TEME
TIME_SYSTEM    = UTC
MEAN_ELEMENT_THEORY = SGP/SGP4

EPOCH          = 2026-01-17T07:12:46.395936
MEAN_MOTION    = 14.85303070
ECCENTRICITY   = .00187139
INCLINATION    = 82.5027
RA_OF_ASC_NODE = 345.2036
ARG_OF_PERICENTER = 339.2159
MEAN_ANOMALY   = 20.8294

EPHEMERIS_TYPE = 0
CLASSIFICATION_TYPE = U
NORAD_CAT_ID   = 17912
ELEMENT_SET_NO = 999
REV_AT_EPOCH   = 7160
BSTAR          = .52631631E-4
MEAN_MOTION_DOT = .477E-5
MEAN_MOTION_DDOT = 0

CCSDS_OMM_VERS = 2.0
CREATION_DATE  = 
ORIGINATOR     = 

OBJECT_NAME    = COSMOS 1844
OBJECT_ID      = 1987-041A
CENTER_NAME    = EARTH
REF_FRAME      = TEME
TIME_SYSTEM    = UTC
MEAN_ELEMENT_THEORY = SGP/SGP4

EPOCH          = 2026-01-17T06:33:38.075040
MEAN_MOTION    = 14.14536950
ECCENTRICITY   = .00282544
INCLINATION    = 70.8995
RA_OF_ASC_NODE = 142.6266
ARG_OF_PERICENTER = 100.4307
MEAN_ANOMALY   = 260.0001

EPHEMERIS_TYPE = 0
CLASSIFICATION_TYPE = U
NORAD_CAT_ID   = 17973
ELEMENT_SET_NO = 999
REV_AT_EPOCH   = 99631
BSTAR          = -.12762842E-3
MEAN_MOTION_DOT = -.294E-5
MEAN_MOTION_DDOT = 0

CCSDS_OMM_VERS = 2.0
CREATION_DATE  = 
ORIGINATOR     = 

OBJECT_NAME    = SL-14 R/B
OBJECT_ID      = 1987-055B
CENTER_NAME    = EARTH
REF_FRAME      = TEME
TIME_SYSTEM    = UTC
MEAN_ELEMENT_THEORY = SGP/SGP4

EPOCH          = 2026-01-17T06:52:14.999808
MEAN_MOTION    = 14.85560438
ECCENTRICITY   = .0020653
INCLINATION    = 82.4975
RA_OF_ASC_NODE = 37.4807
ARG_OF_PERICENTER = 179.2266
MEAN_ANOMALY   = 180.8986

EPHEMERIS_TYPE = 0
CLASSIFICATION_TYPE = U
NORAD_CAT_ID   = 18153
ELEMENT_SET_NO = 999
REV_AT_EPOCH   = 6230
BSTAR          = .4169565E-4
MEAN_MOTION_DOT = .386E-5
MEAN_MOTION_DDOT = 0

CCSDS_OMM_VERS = 2.0
CREATION_DATE  = 
ORIGINATOR     = 

OBJECT_NAME    = COSMOS 1867
OBJECT_ID      = 1987-060A
CENTER_NAME    = EARTH
REF_FRAME      = TEME
TIME_SYSTEM    = UTC
MEAN_ELEMENT_THEORY = SGP/SGP4

EPOCH          = 2026-01-17T07:15:31.921056
MEAN_MOTION    = 14.31492965
ECCENTRICITY   = .00138813
INCLINATION    = 65.0109
RA_OF_ASC_NODE = 90.6138
ARG_OF_PERICENTER = 274.5560
MEAN_ANOMALY   = 85.3939

EPHEMERIS_TYPE = 0
CLASSIFICATION_TYPE = U
NORAD_CAT_ID   = 18187
ELEMENT_SET_NO = 999
REV_AT_EPOCH   = 1258
BSTAR          = .1799002E-4
MEAN_MOTION_DOT = -.52E-6
MEAN_MOTION_DDOT = 0

CCSDS_OMM_VERS = 2.0
CREATION_DATE  = 
ORIGINATOR     = 

OBJECT_NAME    = SL-14 R/B
OBJECT_ID      = 1988-001B
CENTER_NAME    = EARTH
REF_FRAME      = TEME
TIME_SYSTEM    = UTC
MEAN_ELEMENT_THEORY = SGP/SGP4

EPOCH          = 2026-01-17T03:26:35.794176
MEAN_MOTION    = 14.85462997
ECCENTRICITY   = .00192921
INCLINATION    = 82.5112
RA_OF_ASC_NODE = 243.8485
ARG_OF_PERICENTER = 51.7889
MEAN_ANOMALY   = 308.5060

EPHEMERIS_TYPE = 0
CLASSIFICATION_TYPE = U
NORAD_CAT_ID   = 18749
ELEMENT_SET_NO = 999
REV_AT_EPOCH   = 3437
BSTAR          = .38274821E-4
MEAN_MOTION_DOT = .355E-5
MEAN_MOTION_DDOT = 0

