SL-14 R/B               
1 16792U 86046B   26017.27993913  .00000416  00000+0  45063-4 0  9990
2 16792  82.4836 128.7521 0024053  40.8934 319.4080 14.85529760118772
SL-14 R/B               
1 16882U 86055B   26016.95096990  .00000472  00000+0  51640-4 0  9993
2 16882  82.5208 175.2851 0019858 140.0765 337.9667 14.85573398111686
AJISAI (EGS)            
1 16908U 86061A   26017.32855541 -.00000070  00000+0  19335-3 0  9995
2 16908  50.0075 251.2853 0011290 155.3175 316.6423 12.44515004461607
COSMOS 1812             
1 17295U 87003A   26017.13842068  .00144727  00000+0  62339-3 0  9990
2 17295  82.4835 253.4512 0002474  46.4027 313.7448 15.84596765136240
SL-14 R/B               
1 17567U 87024B   26017.33203822  .00000459  00000+0  49460-4 0  9990
2 17567  82.5302 141.0210 0019658  72.4472 287.8890 14.86070014 80508
COSMOS 1833             
1 17589U 87027A   26017.18387637  .00000301  00000+0  18676-3 0  9997
2 17589  70.9193  74.2731 0024211 282.9629  76.8788 14.13045496  3041
SL-16 R/B               
1 17590U 87027B   26017.30668589 -.00000180  00000+0 -65256-4 0  9995
2 17590  71.0033  24.7698 0006382 221.6369 138.4269 14.17160090  8068
SL-14 R/B               
1 17912U 87038B   26017.30053699  .00000477  00000+0  52632-4 0  9996
2 17912  82.5027 345.2036 0018713 339.2159  20.8294 14.85303070 71601
COSMOS 1844             
1 17973U 87041A   26017.27335735 -.00000294  00000+0 -12763-3 0  9996
2 17973  70.8995 142.6266 0028254 100.4307 260.0001 14.14536950996315
SL-14 R/B               
1 18153U 87055B   26017.28628472  .00000386  00000+0  41696-4 0  9994
2 18153  82.4975  37.4807 0020653 179.2266 180.8986 14.85560438 62308
COSMOS 1867             
1 18187U 87060A   26017.30245279 -.00000052  00000+0  17990-4 0  9991
2 18187  65.0109  90.6138 0013881 274.5560  85.3939 14.31492965 12582
SL-14 R/B               
1 18749U 88001B   26017.14346984  .00000355  00000+0  38275-4 0  9992
2 18749  82.5112 243.8485 0019292  51.7889 308.5060 14.85462997 34379
